{
  "type": "FeatureCollection",
  "name": "protected_areas_india",
  "crs": { "type": "name", "properties": { "name": "urn:ogc:def:crs:OGC:1.3:CRS84" } },
  "features": [
    {
      "type": "Feature",
      "properties": {
        "id": "PA-IND-001",
        "name": "Dudhwa Tiger Reserve & National Park",
        "category": "Tiger Reserve",
        "state": "Uttar Pradesh",
        "designation": "Protected Area / Tiger Reserve",
        "established_year": 1977,
        "area_sq_km": 490.3,
        "clearance_type_required": "National Board for Wildlife (NBWL) Clearance"
      },
      "geometry": {
        "type": "Polygon",
        "coordinates": [[
          [80.45, 28.30], [80.95, 28.30], [80.95, 28.65], [80.45, 28.65], [80.45, 28.30]
        ]]
      }
    },
    {
      "type": "Feature",
      "properties": {
        "id": "PA-IND-002",
        "name": "Jim Corbett National Park",
        "category": "National Park",
        "state": "Uttarakhand",
        "designation": "National Park & Tiger Reserve",
        "established_year": 1936,
        "area_sq_km": 520.8,
        "clearance_type_required": "NBWL & Forest Advisory Committee Clearance"
      },
      "geometry": {
        "type": "Polygon",
        "coordinates": [[
          [78.75, 29.40], [79.15, 29.40], [79.15, 29.75], [78.75, 29.75], [78.75, 29.40]
        ]]
      }
    },
    {
      "type": "Feature",
      "properties": {
        "id": "PA-IND-003",
        "name": "Sanjay Gandhi National Park & Aarey Eco-Zone",
        "category": "Eco-Sensitive Zone",
        "state": "Maharashtra",
        "designation": "Eco-Sensitive Zone / National Park",
        "established_year": 1969,
        "area_sq_km": 103.8,
        "clearance_type_required": "State Forest Department & MOEFCC Clearance"
      },
      "geometry": {
        "type": "Polygon",
        "coordinates": [[
          [72.82, 19.12], [72.98, 19.12], [72.98, 19.30], [72.82, 19.30], [72.82, 19.12]
        ]]
      }
    },
    {
      "type": "Feature",
      "properties": {
        "id": "PA-IND-004",
        "name": "Bandipur Tiger Reserve & National Park",
        "category": "Tiger Reserve",
        "state": "Karnataka",
        "designation": "Tiger Reserve & Biosphere Reserve",
        "established_year": 1974,
        "area_sq_km": 874.2,
        "clearance_type_required": "NBWL Clearance & NTCA Approval"
      },
      "geometry": {
        "type": "Polygon",
        "coordinates": [[
          [76.20, 11.60], [76.65, 11.60], [76.65, 11.95], [76.20, 11.95], [76.20, 11.60]
        ]]
      }
    },
    {
      "type": "Feature",
      "properties": {
        "id": "PA-IND-005",
        "name": "Keoladeo Ghana Wetland",
        "category": "Ramsar Wetland",
        "state": "Rajasthan",
        "designation": "Ramsar Site / World Heritage Site",
        "established_year": 1981,
        "area_sq_km": 28.7,
        "clearance_type_required": "Wetland Authority & Central Environmental Clearance"
      },
      "geometry": {
        "type": "Polygon",
        "coordinates": [[
          [77.48, 27.13], [77.56, 27.13], [77.56, 27.22], [77.48, 27.22], [77.48, 27.13]
        ]]
      }
    },
    {
      "type": "Feature",
      "properties": {
        "id": "PA-IND-006",
        "name": "Chilika Lake Ramsar Wetland",
        "category": "Ramsar Wetland",
        "state": "Odisha",
        "designation": "Ramsar Wetland of International Importance",
        "established_year": 1981,
        "area_sq_km": 1165.0,
        "clearance_type_required": "State Wetland Authority & CRZ Clearance"
      },
      "geometry": {
        "type": "Polygon",
        "coordinates": [[
          [85.10, 19.45], [85.60, 19.45], [85.60, 19.90], [85.10, 19.90], [85.10, 19.45]
        ]]
      }
    },
    {
      "type": "Feature",
      "properties": {
        "id": "PA-IND-007",
        "name": "Gir Forest Wildlife Sanctuary",
        "category": "Wildlife Sanctuary",
        "state": "Gujarat",
        "designation": "Wildlife Sanctuary / Lion Habitat",
        "established_year": 1965,
        "area_sq_km": 1412.0,
        "clearance_type_required": "NBWL & Chief Wildlife Warden Clearance"
      },
      "geometry": {
        "type": "Polygon",
        "coordinates": [[
          [70.50, 21.05], [71.15, 21.05], [71.15, 21.45], [70.50, 21.45], [70.50, 21.05]
        ]]
      }
    },
    {
      "type": "Feature",
      "properties": {
        "id": "PA-IND-008",
        "name": "Kaziranga National Park",
        "category": "National Park",
        "state": "Assam",
        "designation": "World Heritage Site & Tiger Reserve",
        "established_year": 1905,
        "area_sq_km": 430.0,
        "clearance_type_required": "NBWL & High-Level UNESCO Eco Committee Clearance"
      },
      "geometry": {
        "type": "Polygon",
        "coordinates": [[
          [92.95, 26.50], [93.45, 26.50], [93.45, 26.78], [92.95, 26.78], [92.95, 26.50]
        ]]
      }
    },
    {
      "type": "Feature",
      "properties": {
        "id": "PA-IND-009",
        "name": "Sundarbans Biosphere & Tiger Reserve",
        "category": "Tiger Reserve",
        "state": "West Bengal",
        "designation": "Ramsar Site & UNESCO Heritage Tiger Reserve",
        "established_year": 1984,
        "area_sq_km": 1330.1,
        "clearance_type_required": "CRZ, NBWL & Sundarban Biosphere Authority Clearance"
      },
      "geometry": {
        "type": "Polygon",
        "coordinates": [[
          [88.50, 21.50], [89.15, 21.50], [89.15, 22.10], [88.50, 22.10], [88.50, 21.50]
        ]]
      }
    },
    {
      "type": "Feature",
      "properties": {
        "id": "PA-IND-010",
        "name": "Kaimur Wildlife Sanctuary",
        "category": "Wildlife Sanctuary",
        "state": "Bihar",
        "designation": "Wildlife Sanctuary & Forest Reserve",
        "established_year": 1982,
        "area_sq_km": 1342.0,
        "clearance_type_required": "State Forest Advisory & Regional MoEFCC Clearance"
      },
      "geometry": {
        "type": "Polygon",
        "coordinates": [[
          [83.40, 24.55], [84.10, 24.55], [84.10, 24.98], [83.40, 24.98], [83.40, 24.55]
        ]]
      }
    },
    {
      "type": "Feature",
      "properties": {
        "id": "PA-IND-011",
        "name": "Periyar Tiger Reserve & Sanctuary",
        "category": "Tiger Reserve",
        "state": "Kerala",
        "designation": "Tiger Reserve & Elephant Reserve",
        "established_year": 1950,
        "area_sq_km": 925.0,
        "clearance_type_required": "NBWL & Western Ghats Ecology Panel Clearance"
      },
      "geometry": {
        "type": "Polygon",
        "coordinates": [[
          [76.90, 9.20], [77.30, 9.20], [77.30, 9.60], [76.90, 9.60], [76.90, 9.20]
        ]]
      }
    },
    {
      "type": "Feature",
      "properties": {
        "id": "PA-IND-012",
        "name": "Western Ghats Eco-Sensitive Zone",
        "category": "Eco-Sensitive Zone",
        "state": "Karnataka",
        "designation": "Eco-Sensitive Corridor",
        "established_year": 2012,
        "area_sq_km": 2400.0,
        "clearance_type_required": "MoEFCC High Level Working Group Approval"
      },
      "geometry": {
        "type": "Polygon",
        "coordinates": [[
          [75.10, 13.10], [75.75, 13.10], [75.75, 13.80], [75.10, 13.80], [75.10, 13.10]
        ]]
      }
    },
    {
      "type": "Feature",
      "properties": {
        "id": "PA-IND-013",
        "name": "Dehradun Rajaji Reserved Forest Division",
        "category": "Reserved Forest",
        "state": "Uttarakhand",
        "designation": "Reserved Forest / Corridor",
        "established_year": 1983,
        "area_sq_km": 820.0,
        "clearance_type_required": "Forest Conservation Act (FCA) Stage I & II Clearance"
      },
      "geometry": {
        "type": "Polygon",
        "coordinates": [[
          [77.90, 30.05], [78.35, 30.05], [78.35, 30.35], [77.90, 30.35], [77.90, 30.05]
        ]]
      }
    },
    {
      "type": "Feature",
      "properties": {
        "id": "PA-IND-014",
        "name": "Okhla Bird Sanctuary Eco-Sensitive Zone",
        "category": "Eco-Sensitive Zone",
        "state": "Uttar Pradesh",
        "designation": "Eco-Sensitive Zone / NCR Wetland",
        "established_year": 1990,
        "area_sq_km": 4.0,
        "clearance_type_required": "State Wetland Authority & NBWL Clearance"
      },
      "geometry": {
        "type": "Polygon",
        "coordinates": [[
          [77.30, 28.52], [77.34, 28.52], [77.34, 28.57], [77.30, 28.57], [77.30, 28.52]
        ]]
      }
    }
  ]
}
